start=new Date('2023-02-07T00:00:00.000Z').valueOf();
sats=[{"MEAN_MOTION":"15.06400522","NORAD_CAT_ID":"47894","GP_ID":"224651074","ECCENTRICITY":"0.00014210","MEAN_MOTION_DDOT":"0.0000000000000","LAUNCH_DATE":"2021-03-14","TIME_SYSTEM":"UTC","CENTER_NAME":"EARTH","OBJECT_NAME":"STARLINK-2354","TLE_LINE1":"1 47894U 21021AL  23037.86309937  .00002554  00000-0  19029-3 0  9998","OBJECT_ID":"2021-021AL","TLE_LINE2":"2 47894  53.0520 290.1449 0001421  93.1168 266.9983 15.06400522106302","ARG_OF_PERICENTER":"93.1168","REV_AT_EPOCH":"10630","DECAY_DATE":null,"MEAN_MOTION_DOT":"0.00002554","FILE":"3776034","SITE":"AFETR","ELEMENT_SET_NO":"999","SEMIMAJOR_AXIS":"6925.347","MEAN_ANOMALY":"266.9983","PERIAPSIS":"546.228","BSTAR":"0.00019029000000","COUNTRY_CODE":"US","PERIOD":"95.592","REF_FRAME":"TEME","APOAPSIS":"548.196","EPHEMERIS_TYPE":"0","INCLINATION":"53.0520","RA_OF_ASC_NODE":"290.1449","MEAN_ELEMENT_THEORY":"SGP4","OBJECT_TYPE":"PAYLOAD","CLASSIFICATION_TYPE":"U","EPOCH":"2023-02-06T20:42:51.785568","RCS_SIZE":"LARGE"},{"REV_AT_EPOCH":"10634","ARG_OF_PERICENTER":"93.1881","TLE_LINE2":"2 47895  53.0536 289.7916 0001194  93.1881 266.9245 15.06407607106348","OBJECT_ID":"2021-021AM","TLE_LINE1":"1 47895U 21021AM  23037.94049855  .00007439  00000-0  51769-3 0  9992","OBJECT_NAME":"STARLINK-2355","TIME_SYSTEM":"UTC","CENTER_NAME":"EARTH","LAUNCH_DATE":"2021-03-14","MEAN_MOTION_DDOT":"0.0000000000000","GP_ID":"224651325","ECCENTRICITY":"0.00011940","NORAD_CAT_ID":"47895","MEAN_MOTION":"15.06407607","RCS_SIZE":"LARGE","EPOCH":"2023-02-06T22:34:19.074720","CLASSIFICATION_TYPE":"U","OBJECT_TYPE":"PAYLOAD","MEAN_ELEMENT_THEORY":"SGP4","RA_OF_ASC_NODE":"289.7916","INCLINATION":"53.0536","EPHEMERIS_TYPE":"0","REF_FRAME":"TEME","APOAPSIS":"548.017","PERIOD":"95.592","COUNTRY_CODE":"US","BSTAR":"0.00051769000000","PERIAPSIS":"546.363","MEAN_ANOMALY":"266.9245","ELEMENT_SET_NO":"999","SITE":"AFETR","SEMIMAJOR_AXIS":"6925.325","FILE":"3776034","MEAN_MOTION_DOT":"0.00007439","DECAY_DATE":null},{"MEAN_MOTION_DOT":"0.00008546","DECAY_DATE":null,"SEMIMAJOR_AXIS":"6925.329","SITE":"AFETR","ELEMENT_SET_NO":"999","FILE":"3776034","BSTAR":"0.00059183000000","MEAN_ANOMALY":"273.2542","PERIAPSIS":"546.219","COUNTRY_CODE":"US","PERIOD":"95.592","EPHEMERIS_TYPE":"0","APOAPSIS":"548.169","REF_FRAME":"TEME","RA_OF_ASC_NODE":"304.8274","MEAN_ELEMENT_THEORY":"SGP4","INCLINATION":"53.0531","OBJECT_TYPE":"PAYLOAD","RCS_SIZE":"LARGE","EPOCH":"2023-02-06T22:24:22.100832","CLASSIFICATION_TYPE":"U","GP_ID":"224650073","ECCENTRICITY":"0.00014080","MEAN_MOTION":"15.06406363","NORAD_CAT_ID":"47896","CENTER_NAME":"EARTH","TIME_SYSTEM":"UTC","LAUNCH_DATE":"2021-03-14","MEAN_MOTION_DDOT":"0.0000000000000","OBJECT_NAME":"STARLINK-2356","OBJECT_ID":"2021-021AN","TLE_LINE1":"1 47896U 21021AN  23037.93358913  .00008546  00000-0  59183-3 0  9998","TLE_LINE2":"2 47896  53.0531 304.8274 0001408  86.8608 273.2542 15.06406363106107","ARG_OF_PERICENTER":"86.8608","REV_AT_EPOCH":"10610"},{"OBJECT_TYPE":"PAYLOAD","RCS_SIZE":"LARGE","CLASSIFICATION_TYPE":"U","EPOCH":"2023-02-06T22:32:58.233696","EPHEMERIS_TYPE":"0","APOAPSIS":"547.989","REF_FRAME":"TEME","RA_OF_ASC_NODE":"289.8022","MEAN_ELEMENT_THEORY":"SGP4","INCLINATION":"53.0519","BSTAR":"0.00142510000000","MEAN_ANOMALY":"264.0501","PERIAPSIS":"546.388","COUNTRY_CODE":"US","PERIOD":"95.592","MEAN_MOTION_DOT":"0.00021014","DECAY_DATE":null,"SITE":"AFETR","SEMIMAJOR_AXIS":"6925.324","ELEMENT_SET_NO":"999","FILE":"3776034","ARG_OF_PERICENTER":"96.0620","REV_AT_EPOCH":"10637","TLE_LINE2":"2 47897  53.0519 289.8022 0001156  96.0620 264.0501 15.06408071106374","OBJECT_NAME":"STARLINK-2357","OBJECT_ID":"2021-021AP","TLE_LINE1":"1 47897U 21021AP  23037.93956289  .00021014  00000-0  14251-2 0  9990","ECCENTRICITY":"0.00011560","GP_ID":"224650323","MEAN_MOTION":"15.06408071","NORAD_CAT_ID":"47897","TIME_SYSTEM":"UTC","CENTER_NAME":"EARTH","MEAN_MOTION_DDOT":"0.0000000000000","LAUNCH_DATE":"2021-03-14"},{"REV_AT_EPOCH":"10630","ARG_OF_PERICENTER":"94.1360","TLE_LINE2":"2 47898  53.0517 290.1296 0001162  94.1360 265.9762 15.06405569106309","OBJECT_ID":"2021-021AQ","TLE_LINE1":"1 47898U 21021AQ  23037.86678101  .00007983  00000-0  55414-3 0  9993","OBJECT_NAME":"STARLINK-2358","TIME_SYSTEM":"UTC","CENTER_NAME":"EARTH","LAUNCH_DATE":"2021-03-14","MEAN_MOTION_DDOT":"0.0000000000000","GP_ID":"224650574","ECCENTRICITY":"0.00011620","NORAD_CAT_ID":"47898","MEAN_MOTION":"15.06405569","RCS_SIZE":"LARGE","CLASSIFICATION_TYPE":"U","EPOCH":"2023-02-06T20:48:09.879264","OBJECT_TYPE":"PAYLOAD","MEAN_ELEMENT_THEORY":"SGP4","RA_OF_ASC_NODE":"290.1296","INCLINATION":"53.0517","EPHEMERIS_TYPE":"0","APOAPSIS":"548.001","REF_FRAME":"TEME","PERIOD":"95.592","COUNTRY_CODE":"US","BSTAR":"0.00055414000000","PERIAPSIS":"546.392","MEAN_ANOMALY":"265.9762","SITE":"AFETR","ELEMENT_SET_NO":"999","SEMIMAJOR_AXIS":"6925.331","FILE":"3776034","MEAN_MOTION_DOT":"0.00007983","DECAY_DATE":null},{"TLE_LINE2":"2 47899  53.0539 279.8330 0001216  92.7386 267.3742 15.06407446106512","REV_AT_EPOCH":"10651","ARG_OF_PERICENTER":"92.7386","CENTER_NAME":"EARTH","TIME_SYSTEM":"UTC","LAUNCH_DATE":"2021-03-14","MEAN_MOTION_DDOT":"0.0000000000000","GP_ID":"224650825","ECCENTRICITY":"0.00012160","MEAN_MOTION":"15.06407446","NORAD_CAT_ID":"47899","OBJECT_ID":"2021-021AR","TLE_LINE1":"1 47899U 21021AR  23037.92941761  .00006275  00000-0  43968-3 0  9990","OBJECT_NAME":"STARLINK-2359","RA_OF_ASC_NODE":"279.8330","MEAN_ELEMENT_THEORY":"SGP4","INCLINATION":"53.0539","EPHEMERIS_TYPE":"0","REF_FRAME":"TEME","APOAPSIS":"548.033","RCS_SIZE":"LARGE","EPOCH":"2023-02-06T22:18:21.681504","CLASSIFICATION_TYPE":"U","OBJECT_TYPE":"PAYLOAD","SITE":"AFETR","SEMIMAJOR_AXIS":"6925.326","ELEMENT_SET_NO":"999","FILE":"3776034","MEAN_MOTION_DOT":"0.00006275","DECAY_DATE":null,"COUNTRY_CODE":"US","PERIOD":"95.592","BSTAR":"0.00043968000000","MEAN_ANOMALY":"267.3742","PERIAPSIS":"546.349"},{"OBJECT_TYPE":"PAYLOAD","EPOCH":"2023-02-06T21:18:38.908512","CLASSIFICATION_TYPE":"U","RCS_SIZE":"LARGE","APOAPSIS":"548.026","REF_FRAME":"TEME","EPHEMERIS_TYPE":"0","INCLINATION":"53.0518","MEAN_ELEMENT_THEORY":"SGP4","RA_OF_ASC_NODE":"290.0362","PERIAPSIS":"546.335","MEAN_ANOMALY":"278.1582","BSTAR":"0.00054701000000","PERIOD":"95.591","COUNTRY_CODE":"US","DECAY_DATE":null,"MEAN_MOTION_DOT":"0.00007878","FILE":"3776034","ELEMENT_SET_NO":"999","SITE":"AFETR","SEMIMAJOR_AXIS":"6925.315","ARG_OF_PERICENTER":"81.9546","REV_AT_EPOCH":"10636","TLE_LINE2":"2 47900  53.0518 290.0362 0001221  81.9546 278.1582 15.06410921106363","OBJECT_NAME":"STARLINK-2360","TLE_LINE1":"1 47900U 21021AS  23037.88795033  .00007878  00000-0  54701-3 0  9994","OBJECT_ID":"2021-021AS","NORAD_CAT_ID":"47900","MEAN_MOTION":"15.06410921","ECCENTRICITY":"0.00012210","GP_ID":"224649573","LAUNCH_DATE":"2021-03-14","MEAN_MOTION_DDOT":"0.0000000000000","TIME_SYSTEM":"UTC","CENTER_NAME":"EARTH"},{"OBJECT_ID":"2021-021AT","TLE_LINE1":"1 47901U 21021AT  23037.91931312  .00004388  00000-0  31324-3 0  9990","OBJECT_NAME":"STARLINK-2361","CENTER_NAME":"EARTH","TIME_SYSTEM":"UTC","LAUNCH_DATE":"2021-03-14","MEAN_MOTION_DDOT":"0.0000000000000","ECCENTRICITY":"0.00012260","GP_ID":"224649823","MEAN_MOTION":"15.06405117","NORAD_CAT_ID":"47901","REV_AT_EPOCH":"10649","ARG_OF_PERICENTER":"100.0247","TLE_LINE2":"2 47901  53.0510 279.9781 0001226 100.0247 260.0880 15.06405117106499","COUNTRY_CODE":"US","PERIOD":"95.592","BSTAR":"0.00031324000000","MEAN_ANOMALY":"260.0880","PERIAPSIS":"546.349","SITE":"AFETR","SEMIMAJOR_AXIS":"6925.333","ELEMENT_SET_NO":"999","FILE":"3776034","MEAN_MOTION_DOT":"0.00004388","DECAY_DATE":null,"RCS_SIZE":"LARGE","EPOCH":"2023-02-06T22:03:48.653568","CLASSIFICATION_TYPE":"U","OBJECT_TYPE":"PAYLOAD","RA_OF_ASC_NODE":"279.9781","MEAN_ELEMENT_THEORY":"SGP4","INCLINATION":"53.0510","EPHEMERIS_TYPE":"0","APOAPSIS":"548.047","REF_FRAME":"TEME"},{"MEAN_MOTION_DOT":"0.00011103","DECAY_DATE":null,"SITE":"AFETR","ELEMENT_SET_NO":"999","SEMIMAJOR_AXIS":"6925.317","FILE":"3776034","BSTAR":"0.00076287000000","PERIAPSIS":"546.421","MEAN_ANOMALY":"263.0562","PERIOD":"95.591","COUNTRY_CODE":"US","EPHEMERIS_TYPE":"0","APOAPSIS":"547.943","REF_FRAME":"TEME","MEAN_ELEMENT_THEORY":"SGP4","RA_OF_ASC_NODE":"299.9707","INCLINATION":"53.0523","OBJECT_TYPE":"PAYLOAD","RCS_SIZE":"LARGE","CLASSIFICATION_TYPE":"U","EPOCH":"2023-02-06T21:39:54.779040","GP_ID":"224651075","ECCENTRICITY":"0.00010990","NORAD_CAT_ID":"47902","MEAN_MOTION":"15.06410398","TIME_SYSTEM":"UTC","CENTER_NAME":"EARTH","MEAN_MOTION_DDOT":"0.0000000000000","LAUNCH_DATE":"2021-03-14","OBJECT_NAME":"STARLINK-2362","OBJECT_ID":"2021-021AU","TLE_LINE1":"1 47902U 21021AU  23037.90271735  .00011103  00000-0  76287-3 0  9996","TLE_LINE2":"2 47902  53.0523 299.9707 0001099  97.0552 263.0562 15.06410398106325","ARG_OF_PERICENTER":"97.0552","REV_AT_EPOCH":"10632"},{"OBJECT_NAME":"STARLINK-2363","TLE_LINE1":"1 47903U 21021AV  23037.92571966 -.00001599  00000-0 -88470-4 0  9996","OBJECT_ID":"2021-021AV","MEAN_MOTION":"15.06392003","NORAD_CAT_ID":"47903","GP_ID":"224651326","ECCENTRICITY":"0.00013380","MEAN_MOTION_DDOT":"0.0000000000000","LAUNCH_DATE":"2021-03-14","CENTER_NAME":"EARTH","TIME_SYSTEM":"UTC","ARG_OF_PERICENTER":"102.4480","REV_AT_EPOCH":"10684","TLE_LINE2":"2 47903  53.0499 279.8562 0001338 102.4480 257.6659 15.06392003106846","MEAN_ANOMALY":"257.6659","PERIAPSIS":"546.311","BSTAR":"-0.00008847000000","COUNTRY_CODE":"US","PERIOD":"95.593","DECAY_DATE":null,"MEAN_MOTION_DOT":"-0.00001599","FILE":"3776034","SEMIMAJOR_AXIS":"6925.373","SITE":"AFETR","ELEMENT_SET_NO":"999","OBJECT_TYPE":"PAYLOAD","EPOCH":"2023-02-06T22:13:02.178624","CLASSIFICATION_TYPE":"U","RCS_SIZE":"LARGE","REF_FRAME":"TEME","APOAPSIS":"548.165","EPHEMERIS_TYPE":"0","INCLINATION":"53.0499","RA_OF_ASC_NODE":"279.8562","MEAN_ELEMENT_THEORY":"SGP4"}];
